SL-14 R/B               
1 21423U 91042B   26043.63794280  .00000414  00000+0  49485-4 0  9994
2 21423  82.4898 243.6792 0016255 327.9985  32.0241 14.81804649849365
ERS-1                   
1 21574U 91050A   26043.95126181  .00000377  00000+0  13542-3 0  9996
2 21574  98.7894  61.5636 0030896 275.8914  83.8751 14.39429139812171
ARIANE 40 R/B           
1 21610U 91050F   26043.71430476  .00000318  00000+0  10778-3 0  9999
2 21610  98.2067  96.8814 0004014 136.1435 224.0075 14.42874934815394
INTERCOSMOS 25          
1 21819U 91086A   26043.80677550  .00001496  00000+0  28979-3 0  9995
2 21819  82.6086 325.0445 1486835 170.5370 192.7412 12.11930372493678
SL-8 R/B                
1 21876U 92008B   26043.78129583  .00000028  00000+0  13127-4 0  9998
2 21876  82.9258 286.3093 0034024 202.3387 225.8370 13.75969688705998
SL-8 R/B                
1 21938U 92020B   26043.89942681  .00000112  00000+0  99930-4 0  9995
2 21938  82.9336 172.1616 0029037   9.7036 107.4052 13.75546056697728
USA 81                  
1 21949U 92023A   26043.78937474  .00000201  00000+0  66906-4 0  9998
2 21949  85.0120 145.7995 0002708  99.8506 260.2993 14.32358875 91228
COSMOS 2219             
1 22219U 92076A   26043.47959471  .00000047  00000+0  49577-4 0  9997
2 22219  71.0578  70.7714 0020172 241.3480 118.5614 14.14076770714810
SL-16 R/B               
1 22220U 92076B   26043.85182913 -.00000132  00000+0 -41964-4 0  9999
2 22220  70.9977 240.6942 0011299 141.1156 312.6477 14.16855866718317
COSMOS 2221             
1 22236U 92080A   26043.69109837  .00001717  00000+0  15023-3 0  9991
2 22236  82.5053 303.0235 0012772 278.7244  81.2531 14.96102009777057
SL-16 R/B               
1 22285U 92093B   26043.51024708  .00000144  00000+0  97962-4 0  9999
2 22285  71.0200  57.1249 0005265 320.6331  39.4409 14.15441584709591
COSMOS 2228             
1 22286U 92094A   26043.85749442  .00001905  00000+0  16246-3 0  9998
2 22286  82.5154 261.0902 0018794  29.6490 330.5793 14.97072678772340
