CCSDS_OMM_VERS = 2.0
CREATION_DATE  = 
ORIGINATOR     = 

OBJECT_NAME    = SL-14 R/B
OBJECT_ID      = 1991-042B
CENTER_NAME    = EARTH
REF_FRAME      = TEME
TIME_SYSTEM    = UTC
MEAN_ELEMENT_THEORY = SGP/SGP4

EPOCH          = 2026-02-12T15:18:38.257920
MEAN_MOTION    = 14.81804649
ECCENTRICITY   = .00162552
INCLINATION    = 82.4898
RA_OF_ASC_NODE = 243.6792
ARG_OF_PERICENTER = 327.9985
MEAN_ANOMALY   = 32.0241

EPHEMERIS_TYPE = 0
CLASSIFICATION_TYPE = U
NORAD_CAT_ID   = 21423
ELEMENT_SET_NO = 999
REV_AT_EPOCH   = 84936
BSTAR          = .49484726E-4
MEAN_MOTION_DOT = .414E-5
MEAN_MOTION_DDOT = 0

CCSDS_OMM_VERS = 2.0
CREATION_DATE  = 
ORIGINATOR     = 

OBJECT_NAME    = ERS-1
OBJECT_ID      = 1991-050A
CENTER_NAME    = EARTH
REF_FRAME      = TEME
TIME_SYSTEM    = UTC
MEAN_ELEMENT_THEORY = SGP/SGP4

EPOCH          = 2026-02-12T22:49:49.020384
MEAN_MOTION    = 14.39429139
ECCENTRICITY   = .00308968
INCLINATION    = 98.7894
RA_OF_ASC_NODE = 61.5636
ARG_OF_PERICENTER = 275.8914
MEAN_ANOMALY   = 83.8751

EPHEMERIS_TYPE = 0
CLASSIFICATION_TYPE = U
NORAD_CAT_ID   = 21574
ELEMENT_SET_NO = 999
REV_AT_EPOCH   = 81217
BSTAR          = .13542345E-3
MEAN_MOTION_DOT = .377E-5
MEAN_MOTION_DDOT = 0

CCSDS_OMM_VERS = 2.0
CREATION_DATE  = 
ORIGINATOR     = 

OBJECT_NAME    = ARIANE 40 R/B
OBJECT_ID      = 1991-050F
CENTER_NAME    = EARTH
REF_FRAME      = TEME
TIME_SYSTEM    = UTC
MEAN_ELEMENT_THEORY = SGP/SGP4

EPOCH          = 2026-02-12T17:08:35.931264
MEAN_MOTION    = 14.42874934
ECCENTRICITY   = .00040149
INCLINATION    = 98.2067
RA_OF_ASC_NODE = 96.8814
ARG_OF_PERICENTER = 136.1435
MEAN_ANOMALY   = 224.0075

EPHEMERIS_TYPE = 0
CLASSIFICATION_TYPE = U
NORAD_CAT_ID   = 21610
ELEMENT_SET_NO = 999
REV_AT_EPOCH   = 81539
BSTAR          = .10777791E-3
MEAN_MOTION_DOT = .318E-5
MEAN_MOTION_DDOT = 0

CCSDS_OMM_VERS = 2.0
CREATION_DATE  = 
ORIGINATOR     = 

OBJECT_NAME    = INTERCOSMOS 25
OBJECT_ID      = 1991-086A
CENTER_NAME    = EARTH
REF_FRAME      = TEME
TIME_SYSTEM    = UTC
MEAN_ELEMENT_THEORY = SGP/SGP4

EPOCH          = 2026-02-12T19:21:45.403200
MEAN_MOTION    = 12.11930372
ECCENTRICITY   = .14868358
INCLINATION    = 82.6086
RA_OF_ASC_NODE = 325.0445
ARG_OF_PERICENTER = 170.5370
MEAN_ANOMALY   = 192.7412

EPHEMERIS_TYPE = 0
CLASSIFICATION_TYPE = U
NORAD_CAT_ID   = 21819
ELEMENT_SET_NO = 999
REV_AT_EPOCH   = 49367
BSTAR          = .28979498E-3
MEAN_MOTION_DOT = .1496E-4
MEAN_MOTION_DDOT = 0

CCSDS_OMM_VERS = 2.0
CREATION_DATE  = 
ORIGINATOR     = 

OBJECT_NAME    = SL-8 R/B
OBJECT_ID      = 1992-008B
CENTER_NAME    = EARTH
REF_FRAME      = TEME
TIME_SYSTEM    = UTC
MEAN_ELEMENT_THEORY = SGP/SGP4

EPOCH          = 2026-02-12T18:45:03.959712
MEAN_MOTION    = 13.75969688
ECCENTRICITY   = .00340246
INCLINATION    = 82.9258
RA_OF_ASC_NODE = 286.3093
ARG_OF_PERICENTER = 202.3387
MEAN_ANOMALY   = 225.8370

EPHEMERIS_TYPE = 0
CLASSIFICATION_TYPE = U
NORAD_CAT_ID   = 21876
ELEMENT_SET_NO = 999
REV_AT_EPOCH   = 70599
BSTAR          = .13127188E-4
MEAN_MOTION_DOT = .28E-6
MEAN_MOTION_DDOT = 0

CCSDS_OMM_VERS = 2.0
CREATION_DATE  = 
ORIGINATOR     = 

OBJECT_NAME    = SL-8 R/B
OBJECT_ID      = 1992-020B
CENTER_NAME    = EARTH
REF_FRAME      = TEME
TIME_SYSTEM    = UTC
MEAN_ELEMENT_THEORY = SGP/SGP4

EPOCH          = 2026-02-12T21:35:10.476384
MEAN_MOTION    = 13.75546056
ECCENTRICITY   = .00290379
INCLINATION    = 82.9336
RA_OF_ASC_NODE = 172.1616
ARG_OF_PERICENTER = 9.7036
MEAN_ANOMALY   = 107.4052

EPHEMERIS_TYPE = 0
CLASSIFICATION_TYPE = U
NORAD_CAT_ID   = 21938
ELEMENT_SET_NO = 999
REV_AT_EPOCH   = 69772
BSTAR          = .99930039E-4
MEAN_MOTION_DOT = .112E-5
MEAN_MOTION_DDOT = 0

CCSDS_OMM_VERS = 2.0
CREATION_DATE  = 
ORIGINATOR     = 

OBJECT_NAME    = USA 81
OBJECT_ID      = 1992-023A
CENTER_NAME    = EARTH
REF_FRAME      = TEME
TIME_SYSTEM    = UTC
MEAN_ELEMENT_THEORY = SGP/SGP4

EPOCH          = 2026-02-12T18:56:41.977536
MEAN_MOTION    = 14.32358875
ECCENTRICITY   = .00027081
INCLINATION    = 85.0120
RA_OF_ASC_NODE = 145.7995
ARG_OF_PERICENTER = 99.8506
MEAN_ANOMALY   = 260.2993

EPHEMERIS_TYPE = 0
CLASSIFICATION_TYPE = U
NORAD_CAT_ID   = 21949
ELEMENT_SET_NO = 999
REV_AT_EPOCH   = 9122
BSTAR          = .66906473E-4
MEAN_MOTION_DOT = .201E-5
MEAN_MOTION_DDOT = 0

CCSDS_OMM_VERS = 2.0
CREATION_DATE  = 
ORIGINATOR     = 

OBJECT_NAME    = COSMOS 2219
OBJECT_ID      = 1992-076A
CENTER_NAME    = EARTH
REF_FRAME      = TEME
TIME_SYSTEM    = UTC
MEAN_ELEMENT_THEORY = SGP/SGP4

EPOCH          = 2026-02-12T11:30:36.982944
MEAN_MOTION    = 14.14076770
ECCENTRICITY   = .00201725
INCLINATION    = 71.0578
RA_OF_ASC_NODE = 70.7714
ARG_OF_PERICENTER = 241.3480
MEAN_ANOMALY   = 118.5614

EPHEMERIS_TYPE = 0
CLASSIFICATION_TYPE = U
NORAD_CAT_ID   = 22219
ELEMENT_SET_NO = 999
REV_AT_EPOCH   = 71481
BSTAR          = .49577069E-4
MEAN_MOTION_DOT = .47E-6
MEAN_MOTION_DDOT = 0

CCSDS_OMM_VERS = 2.0
CREATION_DATE  = 
ORIGINATOR     = 

OBJECT_NAME    = SL-16 R/B
OBJECT_ID      = 1992-076B
CENTER_NAME    = EARTH
REF_FRAME      = TEME
TIME_SYSTEM    = UTC
MEAN_ELEMENT_THEORY = SGP/SGP4

EPOCH          = 2026-02-12T20:26:38.036832
MEAN_MOTION    = 14.16855866
ECCENTRICITY   = .00112993
INCLINATION    = 70.9977
RA_OF_ASC_NODE = 240.6942
ARG_OF_PERICENTER = 141.1156
MEAN_ANOMALY   = 312.6477

EPHEMERIS_TYPE = 0
CLASSIFICATION_TYPE = U
NORAD_CAT_ID   = 22220
ELEMENT_SET_NO = 999
REV_AT_EPOCH   = 71831
BSTAR          = -.4196405E-4
MEAN_MOTION_DOT = -.132E-5
MEAN_MOTION_DDOT = 0

CCSDS_OMM_VERS = 2.0
CREATION_DATE  = 
ORIGINATOR     = 

OBJECT_NAME    = COSMOS 2221
OBJECT_ID      = 1992-080A
CENTER_NAME    = EARTH
REF_FRAME      = TEME
TIME_SYSTEM    = UTC
MEAN_ELEMENT_THEORY = SGP/SGP4

EPOCH          = 2026-02-12T16:35:10.899168
MEAN_MOTION    = 14.96102009
ECCENTRICITY   = .00127727
INCLINATION    = 82.5053
RA_OF_ASC_NODE = 303.0235
ARG_OF_PERICENTER = 278.7244
MEAN_ANOMALY   = 81.2531

EPHEMERIS_TYPE = 0
CLASSIFICATION_TYPE = U
NORAD_CAT_ID   = 22236
ELEMENT_SET_NO = 999
REV_AT_EPOCH   = 77705
BSTAR          = .15023106E-3
MEAN_MOTION_DOT = .1717E-4
MEAN_MOTION_DDOT = 0

CCSDS_OMM_VERS = 2.0
CREATION_DATE  = 
ORIGINATOR     = 

OBJECT_NAME    = SL-16 R/B
OBJECT_ID      = 1992-093B
CENTER_NAME    = EARTH
REF_FRAME      = TEME
TIME_SYSTEM    = UTC
MEAN_ELEMENT_THEORY = SGP/SGP4

EPOCH          = 2026-02-12T12:14:45.347712
MEAN_MOTION    = 14.15441584
ECCENTRICITY   = .0005265
INCLINATION    = 71.0200
RA_OF_ASC_NODE = 57.1249
ARG_OF_PERICENTER = 320.6331
MEAN_ANOMALY   = 39.4409

EPHEMERIS_TYPE = 0
CLASSIFICATION_TYPE = U
NORAD_CAT_ID   = 22285
ELEMENT_SET_NO = 999
REV_AT_EPOCH   = 70959
BSTAR          = .97962E-4
MEAN_MOTION_DOT = .144E-5
MEAN_MOTION_DDOT = 0

CCSDS_OMM_VERS = 2.0
CREATION_DATE  = 
ORIGINATOR     = 

OBJECT_NAME    = COSMOS 2228
OBJECT_ID      = 1992-094A
CENTER_NAME    = EARTH
REF_FRAME      = TEME
TIME_SYSTEM    = UTC
MEAN_ELEMENT_THEORY = SGP/SGP4

EPOCH          = 2026-02-12T20:34:47.517888
MEAN_MOTION    = 14.97072678
ECCENTRICITY   = .00187946
INCLINATION    = 82.5154
RA_OF_ASC_NODE = 261.0902
ARG_OF_PERICENTER = 29.6490
MEAN_ANOMALY   = 330.5793

EPHEMERIS_TYPE = 0
CLASSIFICATION_TYPE = U
NORAD_CAT_ID   = 22286
ELEMENT_SET_NO = 999
REV_AT_EPOCH   = 77234
BSTAR          = .16246485E-3
MEAN_MOTION_DOT = .1905E-4
MEAN_MOTION_DDOT = 0

